0 OPS 7218 (TRANSIT 16)
1 02807U 67048A   13282.17206269  .00000084  00000-0  11626-3 0  9970
2 02807 089.6719 152.3350 0020451 015.1752 085.1000 13.49925639283087
0 OPS 7218 (TRANSIT 16)
1 02807U 67048A   13284.17570247  .00000119  00000-0  17058-3 0  9987
2 02807 089.6715 152.2691 0020241 009.4337 102.2068 13.49925886283351
0 OPS 7218 (TRANSIT 16)
1 02807U 67048A   13286.17686664  .00000132  00000-0  19115-3 0  9992
2 02807 089.6710 152.2031 0020037 003.5568 107.4270 13.49926343283629
0 OPS 7218 (TRANSIT 16)
1 02807U 67048A   13288.17873498  .00000134  00000-0  19472-3 0    08
2 02807 089.6705 152.1372 0019852 357.7796 115.9690 13.49926920283890
0 OPS 7218 (TRANSIT 16)
1 02807U 67048A   13290.47318330  .00000104  00000-0  14721-3 0    13
2 02807 089.6700 152.0619 0019622 350.9827 106.5519 13.49927483284200
0 OPS 7218 (TRANSIT 16)
1 02807U 67048A   13292.47449589  .00000080  00000-0  10958-3 0    28
2 02807 089.6698 151.9959 0019432 345.0083 112.5998 13.49927839284471
0 OPS 7218 (TRANSIT 16)
1 02807U 67048A   13294.83740858  .00000109  00000-0  15625-3 0    32
2 02807 089.6698 151.9176 0019218 337.8741 076.0503 13.49928350284794
